SENTINEL-6              
1 46984U 20086A   24126.60218604 -.00000047  00000+0  60248-4 0  9994
2 46984  66.0411 299.7188 0007751 270.6425  89.3702 12.80930735161376
